[
    {
        "Altitude(m)": 571727.9090053947,
        "Argument of Periapsis(deg)": 0.019868973332140504,
        "Eccentricity": 0.0,
        "Inclination(deg)": 53.0,
        "Latitude(deg)": -52.84553676523183,
        "Longitude(deg)": -160.8946438196748,
        "Mean Anomaly(deg)": 264.82027860273274,
        "RAAN(deg)": 39.97043010558405,
        "Satellite Name": "Starlink Shell 1 190",
        "Satellite Number": 190,
        "Semi-Major Axis(m)": 6931778.249405717,
        "Time(s)": 570
    },
    {
        "Altitude(m)": 571754.6273541069,
        "Argument of Periapsis(deg)": 0.02021755181165174,
        "Eccentricity": 0.0,
        "Inclination(deg)": 53.0,
        "Latitude(deg)": -52.914993530198196,
        "Longitude(deg)": -159.9100487447,
        "Mean Anomaly(deg)": 265.4471098062895,
        "RAAN(deg)": 39.96991133550658,
        "Satellite Name": "Starlink Shell 1 190",
        "Satellite Number": 190,
        "Semi-Major Axis(m)": 6931778.249405717,
        "Time(s)": 580
    },
    {
        "Altitude(m)": 571777.9007354446,
        "Argument of Periapsis(deg)": 0.020566130291162974,
        "Eccentricity": 0.0,
        "Inclination(deg)": 53.0,
        "Latitude(deg)": -52.97556885153463,
        "Longitude(deg)": -158.92238173621266,
        "Mean Anomaly(deg)": 266.07394100984624,
        "RAAN(deg)": 39.969392565429104,
        "Satellite Name": "Starlink Shell 1 190",
        "Satellite Number": 190,
        "Semi-Major Axis(m)": 6931778.249405717,
        "Time(s)": 590
    },
    {
        "Altitude(m)": 571797.7198394099,
        "Argument of Periapsis(deg)": 0.020914708770674213,
        "Eccentricity": 0.0,
        "Inclination(deg)": 53.0,
        "Latitude(deg)": -53.027218748872805,
        "Longitude(deg)": -157.93205033039413,
        "Mean Anomaly(deg)": 266.7007722134029,
        "RAAN(deg)": 39.968873795351634,
        "Satellite Name": "Starlink Shell 1 190",
        "Satellite Number": 190,
        "Semi-Major Axis(m)": 6931778.249405717,
        "Time(s)": 600
    },
    {
        "Altitude(m)": 571814.0767340722,
        "Argument of Periapsis(deg)": 0.021263287250185448,
        "Eccentricity": 0.0,
        "Inclination(deg)": 53.0,
        "Latitude(deg)": -53.069905495640135,
        "Longitude(deg)": -156.93946981583323,
        "Mean Anomaly(deg)": 267.3276034169596,
        "RAAN(deg)": 39.968355025274164,
        "Satellite Name": "Starlink Shell 1 190",
        "Satellite Number": 190,
        "Semi-Major Axis(m)": 6931778.249405717,
        "Time(s)": 610
    },
    {
        "Altitude(m)": 571826.9648689966,
        "Argument of Periapsis(deg)": 0.021611865729696686,
        "Eccentricity": 0.0,
        "Inclination(deg)": 53.0,
        "Latitude(deg)": -53.103597753737525,
        "Longitude(deg)": -155.9450615760901,
        "Mean Anomaly(deg)": 267.95443462051634,
        "RAAN(deg)": 39.96783625519669,
        "Satellite Name": "Starlink Shell 1 190",
        "Satellite Number": 190,
        "Semi-Major Axis(m)": 6931778.249405717,
        "Time(s)": 620
    },
    {
        "Altitude(m)": 571836.379078081,
        "Argument of Periapsis(deg)": 0.02196044420920792,
        "Eccentricity": 0.0,
        "Inclination(deg)": 53.0,
        "Latitude(deg)": -53.12827068637455,
        "Longitude(deg)": -154.94925306606902,
        "Mean Anomaly(deg)": 268.5812658240731,
        "RAAN(deg)": 39.96731748511922,
        "Satellite Name": "Starlink Shell 1 190",
        "Satellite Number": 190,
        "Semi-Major Axis(m)": 6931778.249405717,
        "Time(s)": 630
    },
    {
        "Altitude(m)": 571842.3155817975,
        "Argument of Periapsis(deg)": 0.02230902268871916,
        "Eccentricity": 0.0,
        "Inclination(deg)": 53.0,
        "Latitude(deg)": -53.14390604812429,
        "Longitude(deg)": -153.9524752279565,
        "Mean Anomaly(deg)": 269.2080970276298,
        "RAAN(deg)": 39.96679871504175,
        "Satellite Name": "Starlink Shell 1 190",
        "Satellite Number": 190,
        "Semi-Major Axis(m)": 6931778.249405717,
        "Time(s)": 640
    },
    {
        "Altitude(m)": 571844.7719888199,
        "Argument of Periapsis(deg)": 0.022657601168230398,
        "Eccentricity": 0.0,
        "Inclination(deg)": 53.0,
        "Latitude(deg)": -53.150492251426854,
        "Longitude(deg)": -152.95516239834652,
        "Mean Anomaly(deg)": 269.83492823118644,
        "RAAN(deg)": 39.96627994496426,
        "Satellite Name": "Starlink Shell 1 190",
        "Satellite Number": 190,
        "Semi-Major Axis(m)": 6931778.249405717,
        "Time(s)": 650
    },
    {
        "Altitude(m)": 571843.7472970753,
        "Argument of Periapsis(deg)": 0.023006179647741636,
        "Eccentricity": 0.0,
        "Inclination(deg)": 53.0,
        "Latitude(deg)": -53.14802440898251,
        "Longitude(deg)": -151.95775051323852,
        "Mean Anomaly(deg)": 270.4617594347432,
        "RAAN(deg)": 39.965761174886794,
        "Satellite Name": "Starlink Shell 1 190",
        "Satellite Number": 190,
        "Semi-Major Axis(m)": 6931778.249405717,
        "Time(s)": 660
    },
    {
        "Altitude(m)": 571839.2418941584,
        "Argument of Periapsis(deg)": 0.023354758127252868,
        "Eccentricity": 0.0,
        "Inclination(deg)": 53.0,
        "Latitude(deg)": -53.13650435166828,
        "Longitude(deg)": -150.96067530128468,
        "Mean Anomaly(deg)": 271.08859063829993,
        "RAAN(deg)": 39.96524240480932,
        "Satellite Name": "Starlink Shell 1 190",
        "Satellite Number": 190,
        "Semi-Major Axis(m)": 6931778.249405717,
        "Time(s)": 670
    },
    {
        "Altitude(m)": 571831.2575571884,
        "Argument of Periapsis(deg)": 0.023703336606764106,
        "Eccentricity": 0.0,
        "Inclination(deg)": 53.0,
        "Latitude(deg)": -53.11594062182126,
        "Longitude(deg)": -149.96437198772787,
        "Mean Anomaly(deg)": 271.7154218418567,
        "RAAN(deg)": 39.96472363473185,
        "Satellite Name": "Starlink Shell 1 190",
        "Satellite Number": 190,
        "Semi-Major Axis(m)": 6931778.249405717,
        "Time(s)": 680
    },
    {
        "Altitude(m)": 571819.7974520349,
        "Argument of Periapsis(deg)": 0.024051915086275345,
        "Eccentricity": 0.0,
        "Inclination(deg)": 53.0,
        "Latitude(deg)": -53.08634844195196,
        "Longitude(deg)": -148.96927349287455,
        "Mean Anomaly(deg)": 272.3422530454134,
        "RAAN(deg)": 39.96420486465438,
        "Satellite Name": "Starlink Shell 1 190",
        "Satellite Number": 190,
        "Semi-Major Axis(m)": 6931778.249405717,
        "Time(s)": 690
    },
    {
        "Altitude(m)": 571804.866131948,
        "Argument of Periapsis(deg)": 0.024400493565786583,
        "Eccentricity": 0.0,
        "Inclination(deg)": 53.0,
        "Latitude(deg)": -53.04774965915307,
        "Longitude(deg)": -147.97580864747195,
        "Mean Anomaly(deg)": 272.9690842489701,
        "RAAN(deg)": 39.9636860945769,
        "Satellite Name": "Starlink Shell 1 190",
        "Satellite Number": 190,
        "Semi-Major Axis(m)": 6931778.249405717,
        "Time(s)": 700
    },
    {
        "Altitude(m)": 571786.4695355992,
        "Argument of Periapsis(deg)": 0.024749072045297815,
        "Eccentricity": 0.0,
        "Inclination(deg)": 53.0,
        "Latitude(deg)": -53.000172665676565,
        "Longitude(deg)": -146.98440194712833,
        "Mean Anomaly(deg)": 273.5959154525268,
        "RAAN(deg)": 39.96316732449943,
        "Satellite Name": "Starlink Shell 1 190",
        "Satellite Number": 190,
        "Semi-Major Axis(m)": 6931778.249405717,
        "Time(s)": 710
    },
    {
        "Altitude(m)": 571764.6149845163,
        "Argument of Periapsis(deg)": 0.025097650524809053,
        "Eccentricity": 0.0,
        "Inclination(deg)": 53.0,
        "Latitude(deg)": -52.94365229635815,
        "Longitude(deg)": -145.99547182893053,
        "Mean Anomaly(deg)": 274.22274665608353,
        "RAAN(deg)": 39.96264855442196,
        "Satellite Name": "Starlink Shell 1 190",
        "Satellite Number": 190,
        "Semi-Major Axis(m)": 6931778.249405717,
        "Time(s)": 720
    },
    {
        "Altitude(m)": 571739.3111799211,
        "Argument of Periapsis(deg)": 0.02544622900432029,
        "Eccentricity": 0.0,
        "Inclination(deg)": 53.0,
        "Latitude(deg)": -52.87822970375035,
        "Longitude(deg)": -145.00942899157374,
        "Mean Anomaly(deg)": 274.8495778596402,
        "RAAN(deg)": 39.962129784344484,
        "Satellite Name": "Starlink Shell 1 190",
        "Satellite Number": 190,
        "Semi-Major Axis(m)": 6931778.249405717,
        "Time(s)": 730
    },
    {
        "Altitude(m)": 571710.5681989683,
        "Argument of Periapsis(deg)": 0.02579480748383153,
        "Eccentricity": 0.0,
        "Inclination(deg)": 53.0,
        "Latitude(deg)": -52.80395221200059,
        "Longitude(deg)": -144.0266762797316,
        "Mean Anomaly(deg)": 275.4764090631969,
        "RAAN(deg)": 39.961611014267014,
        "Satellite Name": "Starlink Shell 1 190",
        "Satellite Number": 190,
        "Semi-Major Axis(m)": 6931778.249405717,
        "Time(s)": 740
    },
    {
        "Altitude(m)": 571678.3974903949,
        "Argument of Periapsis(deg)": 0.026143385963342765,
        "Eccentricity": 0.0,
        "Inclination(deg)": 53.0,
        "Latitude(deg)": -52.720873150680426,
        "Longitude(deg)": -143.04760711410404,
        "Mean Anomaly(deg)": 276.10324026675363,
        "RAAN(deg)": 39.961092244189544,
        "Satellite Name": "Starlink Shell 1 190",
        "Satellite Number": 190,
        "Semi-Major Axis(m)": 6931778.249405717,
        "Time(s)": 750
    }
]